[{"OBJECT_NAME":"METEOR-M2 4","OBJECT_ID":"2024-039A","EPOCH":"2026-03-10T00:01:13.262016","MEAN_MOTION":14.22417348,"ECCENTRICITY":0.0008181,"INCLINATION":98.6907,"RA_OF_ASC_NODE":29.6041,"ARG_OF_PERICENTER":95.5481,"MEAN_ANOMALY":264.6631,"EPHEMERIS_TYPE":0,"CLASSIFICATION_TYPE":"U","NORAD_CAT_ID":59051,"ELEMENT_SET_NO":999,"REV_AT_EPOCH":10516,"BSTAR":5.4288673e-5,"MEAN_MOTION_DOT":7.7e-7,"MEAN_MOTION_DDOT":0},{"OBJECT_NAME":"COSMOS 2251 DEB","OBJECT_ID":"1993-036CZ","EPOCH":"2026-03-09T05:58:05.772288","MEAN_MOTION":14.19336269,"ECCENTRICITY":0.0125997,"INCLINATION":73.7691,"RA_OF_ASC_NODE":359.5819,"ARG_OF_PERICENTER":161.8414,"MEAN_ANOMALY":349.2184,"EPHEMERIS_TYPE":0,"CLASSIFICATION_TYPE":"U","NORAD_CAT_ID":33896,"ELEMENT_SET_NO":999,"REV_AT_EPOCH":87967,"BSTAR":0.00058006141,"MEAN_MOTION_DOT":1.292e-5,"MEAN_MOTION_DDOT":0}]
